CCSDS_OMM_VERS = 2.0
CREATION_DATE  = 
ORIGINATOR     = 

OBJECT_NAME    = STARLINK-36342
OBJECT_ID      = 2026-022B
CENTER_NAME    = EARTH
REF_FRAME      = TEME
TIME_SYSTEM    = UTC
MEAN_ELEMENT_THEORY = SGP/SGP4

EPOCH          = 2026-02-25T05:03:12.865248
MEAN_MOTION    = 15.75222498
ECCENTRICITY   = .00013075
INCLINATION    = 97.2844
RA_OF_ASC_NODE = 89.5601
ARG_OF_PERICENTER = 33.9072
MEAN_ANOMALY   = 326.2276

EPHEMERIS_TYPE = 0
CLASSIFICATION_TYPE = U
NORAD_CAT_ID   = 67649
ELEMENT_SET_NO = 999
REV_AT_EPOCH   = 358
BSTAR          = .15177359E-2
MEAN_MOTION_DOT = .232859E-2
MEAN_MOTION_DDOT = 0

CCSDS_OMM_VERS = 2.0
CREATION_DATE  = 
ORIGINATOR     = 

OBJECT_NAME    = STARLINK-36703
OBJECT_ID      = 2026-022C
CENTER_NAME    = EARTH
REF_FRAME      = TEME
TIME_SYSTEM    = UTC
MEAN_ELEMENT_THEORY = SGP/SGP4

EPOCH          = 2026-02-25T01:58:43.844160
MEAN_MOTION    = 15.75294121
ECCENTRICITY   = .00017123
INCLINATION    = 97.2847
RA_OF_ASC_NODE = 89.4281
ARG_OF_PERICENTER = 69.2324
MEAN_ANOMALY   = 290.9125

EPHEMERIS_TYPE = 0
CLASSIFICATION_TYPE = U
NORAD_CAT_ID   = 67650
ELEMENT_SET_NO = 999
REV_AT_EPOCH   = 356
BSTAR          = .16711469E-2
MEAN_MOTION_DOT = .25797E-2
MEAN_MOTION_DDOT = 0

CCSDS_OMM_VERS = 2.0
CREATION_DATE  = 
ORIGINATOR     = 

OBJECT_NAME    = STARLINK-36696
OBJECT_ID      = 2026-022D
CENTER_NAME    = EARTH
REF_FRAME      = TEME
TIME_SYSTEM    = UTC
MEAN_ELEMENT_THEORY = SGP/SGP4

EPOCH          = 2026-02-25T01:56:11.414688
MEAN_MOTION    = 15.75263510
ECCENTRICITY   = .00013773
INCLINATION    = 97.2846
RA_OF_ASC_NODE = 89.4306
ARG_OF_PERICENTER = 72.7555
MEAN_ANOMALY   = 287.3861

EPHEMERIS_TYPE = 0
CLASSIFICATION_TYPE = U
NORAD_CAT_ID   = 67651
ELEMENT_SET_NO = 999
REV_AT_EPOCH   = 356
BSTAR          = .12342277E-2
MEAN_MOTION_DOT = .188686E-2
MEAN_MOTION_DDOT = 0

CCSDS_OMM_VERS = 2.0
CREATION_DATE  = 
ORIGINATOR     = 

OBJECT_NAME    = STARLINK-36699
OBJECT_ID      = 2026-022E
CENTER_NAME    = EARTH
REF_FRAME      = TEME
TIME_SYSTEM    = UTC
MEAN_ELEMENT_THEORY = SGP/SGP4

EPOCH          = 2026-02-25T01:55:10.314336
MEAN_MOTION    = 15.75299556
ECCENTRICITY   = .00016163
INCLINATION    = 97.2843
RA_OF_ASC_NODE = 89.4317
ARG_OF_PERICENTER = 103.6523
MEAN_ANOMALY   = 256.4922

EPHEMERIS_TYPE = 0
CLASSIFICATION_TYPE = U
NORAD_CAT_ID   = 67652
ELEMENT_SET_NO = 999
REV_AT_EPOCH   = 356
BSTAR          = .16996902E-2
MEAN_MOTION_DOT = .262583E-2
MEAN_MOTION_DDOT = 0

CCSDS_OMM_VERS = 2.0
CREATION_DATE  = 
ORIGINATOR     = 

OBJECT_NAME    = STARLINK-36694
OBJECT_ID      = 2026-022F
CENTER_NAME    = EARTH
REF_FRAME      = TEME
TIME_SYSTEM    = UTC
MEAN_ELEMENT_THEORY = SGP/SGP4

EPOCH          = 2026-02-25T01:52:07.464288
MEAN_MOTION    = 15.75277160
ECCENTRICITY   = .00020546
INCLINATION    = 97.2841
RA_OF_ASC_NODE = 89.4348
ARG_OF_PERICENTER = 355.8007
MEAN_ANOMALY   = 4.3241

EPHEMERIS_TYPE = 0
CLASSIFICATION_TYPE = U
NORAD_CAT_ID   = 67653
ELEMENT_SET_NO = 999
REV_AT_EPOCH   = 356
BSTAR          = .11240067E-2
MEAN_MOTION_DOT = .171585E-2
MEAN_MOTION_DDOT = 0

CCSDS_OMM_VERS = 2.0
CREATION_DATE  = 
ORIGINATOR     = 

OBJECT_NAME    = STARLINK-36620
OBJECT_ID      = 2026-022G
CENTER_NAME    = EARTH
REF_FRAME      = TEME
TIME_SYSTEM    = UTC
MEAN_ELEMENT_THEORY = SGP/SGP4

EPOCH          = 2026-02-25T01:51:37.238976
MEAN_MOTION    = 15.75425230
ECCENTRICITY   = .00015521
INCLINATION    = 97.2849
RA_OF_ASC_NODE = 89.4347
ARG_OF_PERICENTER = 32.0216
MEAN_ANOMALY   = 328.1144

EPHEMERIS_TYPE = 0
CLASSIFICATION_TYPE = U
NORAD_CAT_ID   = 67654
ELEMENT_SET_NO = 999
REV_AT_EPOCH   = 356
BSTAR          = .19702188E-2
MEAN_MOTION_DOT = .307694E-2
MEAN_MOTION_DDOT = 0

CCSDS_OMM_VERS = 2.0
CREATION_DATE  = 
ORIGINATOR     = 

OBJECT_NAME    = STARLINK-36720
OBJECT_ID      = 2026-022H
CENTER_NAME    = EARTH
REF_FRAME      = TEME
TIME_SYSTEM    = UTC
MEAN_ELEMENT_THEORY = SGP/SGP4

EPOCH          = 2026-02-25T01:49:04.387872
MEAN_MOTION    = 15.75292518
ECCENTRICITY   = .00014322
INCLINATION    = 97.2842
RA_OF_ASC_NODE = 89.4372
ARG_OF_PERICENTER = 100.9616
MEAN_ANOMALY   = 259.1810

EPHEMERIS_TYPE = 0
CLASSIFICATION_TYPE = U
NORAD_CAT_ID   = 67655
ELEMENT_SET_NO = 999
REV_AT_EPOCH   = 356
BSTAR          = .16132806E-2
MEAN_MOTION_DOT = .248743E-2
MEAN_MOTION_DDOT = 0

CCSDS_OMM_VERS = 2.0
CREATION_DATE  = 
ORIGINATOR     = 

OBJECT_NAME    = STARLINK-36688
OBJECT_ID      = 2026-022J
CENTER_NAME    = EARTH
REF_FRAME      = TEME
TIME_SYSTEM    = UTC
MEAN_ELEMENT_THEORY = SGP/SGP4

EPOCH          = 2026-02-25T01:48:03.925152
MEAN_MOTION    = 15.75268090
ECCENTRICITY   = .00016482
INCLINATION    = 97.2845
RA_OF_ASC_NODE = 89.4378
ARG_OF_PERICENTER = 41.4477
MEAN_ANOMALY   = 318.6913

EPHEMERIS_TYPE = 0
CLASSIFICATION_TYPE = U
NORAD_CAT_ID   = 67656
ELEMENT_SET_NO = 999
REV_AT_EPOCH   = 356
BSTAR          = .17150457E-2
MEAN_MOTION_DOT = .264661E-2
MEAN_MOTION_DDOT = 0

CCSDS_OMM_VERS = 2.0
CREATION_DATE  = 
ORIGINATOR     = 

OBJECT_NAME    = STARLINK-36706
OBJECT_ID      = 2026-022K
CENTER_NAME    = EARTH
REF_FRAME      = TEME
TIME_SYSTEM    = UTC
MEAN_ELEMENT_THEORY = SGP/SGP4

EPOCH          = 2026-02-25T01:46:01.429824
MEAN_MOTION    = 15.75279343
ECCENTRICITY   = .00010601
INCLINATION    = 97.2842
RA_OF_ASC_NODE = 89.4387
ARG_OF_PERICENTER = 116.5680
MEAN_ANOMALY   = 243.5694

EPHEMERIS_TYPE = 0
CLASSIFICATION_TYPE = U
NORAD_CAT_ID   = 67657
ELEMENT_SET_NO = 999
REV_AT_EPOCH   = 356
BSTAR          = .1482066E-2
MEAN_MOTION_DOT = .227807E-2
MEAN_MOTION_DDOT = 0

CCSDS_OMM_VERS = 2.0
CREATION_DATE  = 
ORIGINATOR     = 

OBJECT_NAME    = STARLINK-36701
OBJECT_ID      = 2026-022L
CENTER_NAME    = EARTH
REF_FRAME      = TEME
TIME_SYSTEM    = UTC
MEAN_ELEMENT_THEORY = SGP/SGP4

EPOCH          = 2026-02-25T01:44:29.982336
MEAN_MOTION    = 15.75255100
ECCENTRICITY   = .00010379
INCLINATION    = 97.2841
RA_OF_ASC_NODE = 89.4407
ARG_OF_PERICENTER = 70.3916
MEAN_ANOMALY   = 289.7461

EPHEMERIS_TYPE = 0
CLASSIFICATION_TYPE = U
NORAD_CAT_ID   = 67658
ELEMENT_SET_NO = 999
REV_AT_EPOCH   = 356
BSTAR          = .99484089E-3
MEAN_MOTION_DOT = .151339E-2
MEAN_MOTION_DDOT = 0

CCSDS_OMM_VERS = 2.0
CREATION_DATE  = 
ORIGINATOR     = 

OBJECT_NAME    = STARLINK-36642
OBJECT_ID      = 2026-022M
CENTER_NAME    = EARTH
REF_FRAME      = TEME
TIME_SYSTEM    = UTC
MEAN_ELEMENT_THEORY = SGP/SGP4

EPOCH          = 2026-02-25T01:42:58.788000
MEAN_MOTION    = 15.75260972
ECCENTRICITY   = .0001844
INCLINATION    = 97.2838
RA_OF_ASC_NODE = 89.4420
ARG_OF_PERICENTER = 106.2297
MEAN_ANOMALY   = 253.9172

EPHEMERIS_TYPE = 0
CLASSIFICATION_TYPE = U
NORAD_CAT_ID   = 67659
ELEMENT_SET_NO = 999
REV_AT_EPOCH   = 356
BSTAR          = .13338271E-2
MEAN_MOTION_DOT = .204279E-2
MEAN_MOTION_DDOT = 0

CCSDS_OMM_VERS = 2.0
CREATION_DATE  = 
ORIGINATOR     = 

OBJECT_NAME    = STARLINK-36673
OBJECT_ID      = 2026-022N
CENTER_NAME    = EARTH
REF_FRAME      = TEME
TIME_SYSTEM    = UTC
MEAN_ELEMENT_THEORY = SGP/SGP4

EPOCH          = 2026-02-25T01:40:56.579520
MEAN_MOTION    = 15.75274823
ECCENTRICITY   = .00013207
INCLINATION    = 97.2844
RA_OF_ASC_NODE = 89.4440
ARG_OF_PERICENTER = 106.9179
MEAN_ANOMALY   = 253.2231

EPHEMERIS_TYPE = 0
CLASSIFICATION_TYPE = U
NORAD_CAT_ID   = 67660
ELEMENT_SET_NO = 999
REV_AT_EPOCH   = 356
BSTAR          = .13891062E-2
MEAN_MOTION_DOT = .213097E-2
MEAN_MOTION_DDOT = 0

