STARLINK-36342          
1 67649U 26022B   26056.21056557  .00232859  00000+0  15177-2 0  9995
2 67649  97.2844  89.5601 0001307  33.9072 326.2276 15.75222498  3581
STARLINK-36703          
1 67650U 26022C   26056.08245190  .00257970  00000+0  16711-2 0  9991
2 67650  97.2847  89.4281 0001712  69.2324 290.9125 15.75294121  3561
STARLINK-36696          
1 67651U 26022D   26056.08068767  .00188686  00000+0  12342-2 0  9998
2 67651  97.2846  89.4306 0001377  72.7555 287.3861 15.75263510  3566
STARLINK-36699          
1 67652U 26022E   26056.07998049  .00262583  00000+0  16997-2 0  9992
2 67652  97.2843  89.4317 0001616 103.6523 256.4922 15.75299556  3565
STARLINK-36694          
1 67653U 26022F   26056.07786417  .00171585  00000+0  11240-2 0  9994
2 67653  97.2841  89.4348 0002054 355.8007   4.3241 15.75277160  3564
STARLINK-36620          
1 67654U 26022G   26056.07751434  .00307694  00000+0  19702-2 0  9999
2 67654  97.2849  89.4347 0001552  32.0216 328.1144 15.75425230  3562
STARLINK-36720          
1 67655U 26022H   26056.07574523  .00248743  00000+0  16133-2 0  9996
2 67655  97.2842  89.4372 0001432 100.9616 259.1810 15.75292518  3564
STARLINK-36688          
1 67656U 26022J   26056.07504543  .00264661  00000+0  17150-2 0  9999
2 67656  97.2845  89.4378 0001648  41.4477 318.6913 15.75268090  3560
STARLINK-36706          
1 67657U 26022K   26056.07362766  .00227807  00000+0  14821-2 0  9992
2 67657  97.2842  89.4387 0001060 116.5680 243.5694 15.75279343  3561
STARLINK-36701          
1 67658U 26022L   26056.07256924  .00151339  00000+0  99484-3 0  9996
2 67658  97.2841  89.4407 0001037  70.3916 289.7461 15.75255100  3566
STARLINK-36642          
1 67659U 26022M   26056.07151375  .00204279  00000+0  13338-2 0  9996
2 67659  97.2838  89.4420 0001844 106.2297 253.9172 15.75260972  3560
STARLINK-36673          
1 67660U 26022N   26056.07009930  .00213097  00000+0  13891-2 0  9999
2 67660  97.2844  89.4440 0001320 106.9179 253.2231 15.75274823  3565
